sat37153
1 37153U 10043B   20046.81005611  .00000013  00000-0  22356-4 0  9997
2 37153  82.4557  79.4004 0008106  73.3165 286.8803 12.40735535427548
